CCSDS_OMM_VERS = 2.0
CREATION_DATE  = 
ORIGINATOR     = 

OBJECT_NAME    = STARLINK-35761
OBJECT_ID      = 2025-288C
CENTER_NAME    = EARTH
REF_FRAME      = TEME
TIME_SYSTEM    = UTC
MEAN_ELEMENT_THEORY = SGP/SGP4

EPOCH          = 2026-01-01T22:00:01.999584
MEAN_MOTION    = 15.44403472
ECCENTRICITY   = .00015152
INCLINATION    = 43.0006
RA_OF_ASC_NODE = 45.8567
ARG_OF_PERICENTER = 268.2612
MEAN_ANOMALY   = 109.9882

EPHEMERIS_TYPE = 0
CLASSIFICATION_TYPE = U
NORAD_CAT_ID   = 66961
ELEMENT_SET_NO = 999
REV_AT_EPOCH   = 507
BSTAR          = -.48753923E-1
MEAN_MOTION_DOT = -.2050352E-1
MEAN_MOTION_DDOT = 0

CCSDS_OMM_VERS = 2.0
CREATION_DATE  = 
ORIGINATOR     = 

OBJECT_NAME    = STARLINK-35874
OBJECT_ID      = 2025-288D
CENTER_NAME    = EARTH
REF_FRAME      = TEME
TIME_SYSTEM    = UTC
MEAN_ELEMENT_THEORY = SGP/SGP4

EPOCH          = 2026-01-01T14:07:08.662080
MEAN_MOTION    = 15.50623848
ECCENTRICITY   = .0001415
INCLINATION    = 43.0009
RA_OF_ASC_NODE = 47.7345
ARG_OF_PERICENTER = 266.1222
MEAN_ANOMALY   = 93.9477

EPHEMERIS_TYPE = 0
CLASSIFICATION_TYPE = U
NORAD_CAT_ID   = 66962
ELEMENT_SET_NO = 999
REV_AT_EPOCH   = 496
BSTAR          = .26833E-2
MEAN_MOTION_DOT = .1606E-2
MEAN_MOTION_DDOT = 0

CCSDS_OMM_VERS = 2.0
CREATION_DATE  = 
ORIGINATOR     = 

OBJECT_NAME    = STARLINK-36133
OBJECT_ID      = 2025-288E
CENTER_NAME    = EARTH
REF_FRAME      = TEME
TIME_SYSTEM    = UTC
MEAN_ELEMENT_THEORY = SGP/SGP4

EPOCH          = 2026-01-01T14:06:39.018240
MEAN_MOTION    = 15.50625534
ECCENTRICITY   = .0001298
INCLINATION    = 43.0010
RA_OF_ASC_NODE = 47.7316
ARG_OF_PERICENTER = 264.7844
MEAN_ANOMALY   = 95.2869

EPHEMERIS_TYPE = 0
CLASSIFICATION_TYPE = U
NORAD_CAT_ID   = 66963
ELEMENT_SET_NO = 999
REV_AT_EPOCH   = 496
BSTAR          = .26546E-2
MEAN_MOTION_DOT = .158856E-2
MEAN_MOTION_DDOT = 0

CCSDS_OMM_VERS = 2.0
CREATION_DATE  = 
ORIGINATOR     = 

OBJECT_NAME    = STARLINK-36104
OBJECT_ID      = 2025-288F
CENTER_NAME    = EARTH
REF_FRAME      = TEME
TIME_SYSTEM    = UTC
MEAN_ELEMENT_THEORY = SGP/SGP4

EPOCH          = 2026-01-01T14:06:12.655008
MEAN_MOTION    = 15.50360773
ECCENTRICITY   = .000174
INCLINATION    = 43.0010
RA_OF_ASC_NODE = 47.7286
ARG_OF_PERICENTER = 278.3945
MEAN_ANOMALY   = 81.6718

EPHEMERIS_TYPE = 0
CLASSIFICATION_TYPE = U
NORAD_CAT_ID   = 66964
ELEMENT_SET_NO = 999
REV_AT_EPOCH   = 496
BSTAR          = -.69045E-3
MEAN_MOTION_DOT = -.40327E-3
MEAN_MOTION_DDOT = 0

CCSDS_OMM_VERS = 2.0
CREATION_DATE  = 
ORIGINATOR     = 

OBJECT_NAME    = STARLINK-36067
OBJECT_ID      = 2025-288G
CENTER_NAME    = EARTH
REF_FRAME      = TEME
TIME_SYSTEM    = UTC
MEAN_ELEMENT_THEORY = SGP/SGP4

EPOCH          = 2026-01-01T22:00:01.999584
MEAN_MOTION    = 15.40651169
ECCENTRICITY   = .0001386
INCLINATION    = 43.0010
RA_OF_ASC_NODE = 45.9330
ARG_OF_PERICENTER = 265.4409
MEAN_ANOMALY   = 80.9598

EPHEMERIS_TYPE = 0
CLASSIFICATION_TYPE = U
NORAD_CAT_ID   = 66965
ELEMENT_SET_NO = 999
REV_AT_EPOCH   = 507
BSTAR          = .18676566E-2
MEAN_MOTION_DOT = .78391E-3
MEAN_MOTION_DDOT = 0

CCSDS_OMM_VERS = 2.0
CREATION_DATE  = 
ORIGINATOR     = 

OBJECT_NAME    = STARLINK-36139
OBJECT_ID      = 2025-288H
CENTER_NAME    = EARTH
REF_FRAME      = TEME
TIME_SYSTEM    = UTC
MEAN_ELEMENT_THEORY = SGP/SGP4

EPOCH          = 2026-01-01T14:05:10.095360
MEAN_MOTION    = 15.50583725
ECCENTRICITY   = .0001148
INCLINATION    = 43.0009
RA_OF_ASC_NODE = 47.7238
ARG_OF_PERICENTER = 269.5548
MEAN_ANOMALY   = 90.5180

EPHEMERIS_TYPE = 0
CLASSIFICATION_TYPE = U
NORAD_CAT_ID   = 66966
ELEMENT_SET_NO = 999
REV_AT_EPOCH   = 496
BSTAR          = .12246E-2
MEAN_MOTION_DOT = .72177E-3
MEAN_MOTION_DDOT = 0

CCSDS_OMM_VERS = 2.0
CREATION_DATE  = 
ORIGINATOR     = 

OBJECT_NAME    = STARLINK-36136
OBJECT_ID      = 2025-288J
CENTER_NAME    = EARTH
REF_FRAME      = TEME
TIME_SYSTEM    = UTC
MEAN_ELEMENT_THEORY = SGP/SGP4

EPOCH          = 2026-01-01T14:04:40.505952
MEAN_MOTION    = 15.50625397
ECCENTRICITY   = .0001259
INCLINATION    = 43.0008
RA_OF_ASC_NODE = 47.7205
ARG_OF_PERICENTER = 267.3490
MEAN_ANOMALY   = 92.7226

EPHEMERIS_TYPE = 0
CLASSIFICATION_TYPE = U
NORAD_CAT_ID   = 66967
ELEMENT_SET_NO = 999
REV_AT_EPOCH   = 496
BSTAR          = .2728E-2
MEAN_MOTION_DOT = .163353E-2
MEAN_MOTION_DDOT = 0

CCSDS_OMM_VERS = 2.0
CREATION_DATE  = 
ORIGINATOR     = 

OBJECT_NAME    = STARLINK-36152
OBJECT_ID      = 2025-288K
CENTER_NAME    = EARTH
REF_FRAME      = TEME
TIME_SYSTEM    = UTC
MEAN_ELEMENT_THEORY = SGP/SGP4

EPOCH          = 2026-01-01T14:04:10.831008
MEAN_MOTION    = 15.50622028
ECCENTRICITY   = .0001287
INCLINATION    = 43.0010
RA_OF_ASC_NODE = 47.7172
ARG_OF_PERICENTER = 263.8959
MEAN_ANOMALY   = 96.1755

EPHEMERIS_TYPE = 0
CLASSIFICATION_TYPE = U
NORAD_CAT_ID   = 66968
ELEMENT_SET_NO = 999
REV_AT_EPOCH   = 496
BSTAR          = .264E-2
MEAN_MOTION_DOT = .157942E-2
MEAN_MOTION_DDOT = 0

CCSDS_OMM_VERS = 2.0
CREATION_DATE  = 
ORIGINATOR     = 

OBJECT_NAME    = STARLINK-36149
OBJECT_ID      = 2025-288L
CENTER_NAME    = EARTH
REF_FRAME      = TEME
TIME_SYSTEM    = UTC
MEAN_ELEMENT_THEORY = SGP/SGP4

EPOCH          = 2026-01-01T22:00:01.999584
MEAN_MOTION    = 15.40725282
ECCENTRICITY   = .0001526
INCLINATION    = 43.0010
RA_OF_ASC_NODE = 45.9906
ARG_OF_PERICENTER = 255.2813
MEAN_ANOMALY   = 66.2575

EPHEMERIS_TYPE = 0
CLASSIFICATION_TYPE = U
NORAD_CAT_ID   = 66969
ELEMENT_SET_NO = 999
REV_AT_EPOCH   = 507
BSTAR          = -.20258792E-2
MEAN_MOTION_DOT = -.84074E-3
MEAN_MOTION_DDOT = 0

CCSDS_OMM_VERS = 2.0
CREATION_DATE  = 
ORIGINATOR     = 

OBJECT_NAME    = STARLINK-35703
OBJECT_ID      = 2025-288M
CENTER_NAME    = EARTH
REF_FRAME      = TEME
TIME_SYSTEM    = UTC
MEAN_ELEMENT_THEORY = SGP/SGP4

EPOCH          = 2026-01-01T13:59:44.244672
MEAN_MOTION    = 15.50610037
ECCENTRICITY   = .0001228
INCLINATION    = 43.0010
RA_OF_ASC_NODE = 47.6918
ARG_OF_PERICENTER = 267.0980
MEAN_ANOMALY   = 92.9740

EPHEMERIS_TYPE = 0
CLASSIFICATION_TYPE = U
NORAD_CAT_ID   = 66970
ELEMENT_SET_NO = 999
REV_AT_EPOCH   = 496
BSTAR          = .24548E-2
MEAN_MOTION_DOT = .14656E-2
MEAN_MOTION_DDOT = 0

CCSDS_OMM_VERS = 2.0
CREATION_DATE  = 
ORIGINATOR     = 

OBJECT_NAME    = STARLINK-35678
OBJECT_ID      = 2025-288N
CENTER_NAME    = EARTH
REF_FRAME      = TEME
TIME_SYSTEM    = UTC
MEAN_ELEMENT_THEORY = SGP/SGP4

EPOCH          = 2026-01-01T14:03:41.086944
MEAN_MOTION    = 15.50618113
ECCENTRICITY   = .0001198
INCLINATION    = 43.0010
RA_OF_ASC_NODE = 47.7151
ARG_OF_PERICENTER = 272.8098
MEAN_ANOMALY   = 87.2625

EPHEMERIS_TYPE = 0
CLASSIFICATION_TYPE = U
NORAD_CAT_ID   = 66971
ELEMENT_SET_NO = 999
REV_AT_EPOCH   = 496
BSTAR          = .20932E-2
MEAN_MOTION_DOT = .124603E-2
MEAN_MOTION_DDOT = 0

CCSDS_OMM_VERS = 2.0
CREATION_DATE  = 
ORIGINATOR     = 

OBJECT_NAME    = STARLINK-34846
OBJECT_ID      = 2025-288P
CENTER_NAME    = EARTH
REF_FRAME      = TEME
TIME_SYSTEM    = UTC
MEAN_ELEMENT_THEORY = SGP/SGP4

EPOCH          = 2026-01-01T14:03:11.629728
MEAN_MOTION    = 15.50622323
ECCENTRICITY   = .0001208
INCLINATION    = 43.0007
RA_OF_ASC_NODE = 47.7126
ARG_OF_PERICENTER = 267.0535
MEAN_ANOMALY   = 93.0187

EPHEMERIS_TYPE = 0
CLASSIFICATION_TYPE = U
NORAD_CAT_ID   = 66972
ELEMENT_SET_NO = 999
REV_AT_EPOCH   = 496
BSTAR          = .26484E-2
MEAN_MOTION_DOT = .158454E-2
MEAN_MOTION_DDOT = 0

